[{"OBJECT_NAME":"IRIDIUM 145","OBJECT_ID":"2018-030E","EPOCH":"2026-03-09T23:33:38.409120","MEAN_MOTION":14.34213927,"ECCENTRICITY":0.00019039,"INCLINATION":86.4013,"RA_OF_ASC_NODE":331.8973,"ARG_OF_PERICENTER":94.1139,"MEAN_ANOMALY":266.0275,"EPHEMERIS_TYPE":0,"CLASSIFICATION_TYPE":"U","NORAD_CAT_ID":43253,"ELEMENT_SET_NO":999,"REV_AT_EPOCH":41590,"BSTAR":0.00011521042,"MEAN_MOTION_DOT":3.42e-6,"MEAN_MOTION_DDOT":0},{"OBJECT_NAME":"NOAA 16 DEB","OBJECT_ID":"2000-055J","EPOCH":"2026-03-08T05:48:25.200576","MEAN_MOTION":14.3429622,"ECCENTRICITY":0.00159007,"INCLINATION":98.7778,"RA_OF_ASC_NODE":175.8988,"ARG_OF_PERICENTER":201.6734,"MEAN_ANOMALY":158.3779,"EPHEMERIS_TYPE":0,"CLASSIFICATION_TYPE":"U","NORAD_CAT_ID":41051,"ELEMENT_SET_NO":999,"REV_AT_EPOCH":53253,"BSTAR":0.0028081093,"MEAN_MOTION_DOT":7.86e-5,"MEAN_MOTION_DDOT":0}]
